NORAD_CAT_ID,OBJECT_NAME,OBJECT_TYPE,EPOCH,MEAN_MOTION,ECCENTRICITY,INCLINATION,RA_OF_ASC_NODE,ARG_OF_PERICENTER,MEAN_ANOMALY,BSTAR,MEAN_MOTION_DOT,MEAN_MOTION_DDOT,TLE_LINE0,TLE_LINE1,TLE_LINE2,SEMIMAJOR_AXIS,PERIOD,APOGEE,PERIGEE,DECAYED
49745.0,STARLINK-3241,PAYLOAD,2022-07-29 09:21:37,15.08839079,0.0001557,53.2172,311.6985,67.4004,292.7153,4.7578e-05,4.69e-06,0.0,0 STARLINK-3241,1 49745U 21115X   22210.39001503  .00000469  00000-0  47578-4 0  9991,2 49745  53.2172 311.6985 0001557  67.4004 292.7153 15.08839079 37473,6917.8830000000025,95.438,540.825,538.6709999999998,0.0
49745.0,STARLINK-3241,PAYLOAD,2022-07-29 17:18:32,15.08842012,0.0001588,53.2173,310.2116,67.135,292.981,3.2631e-05,2.31e-06,0.0,0 STARLINK-3241,1 49745U 21115X   22210.72121323  .00000231  00000-0  32631-4 0  9992,2 49745  53.2173 310.2116 0001588  67.1350 292.9810 15.08842012 36416,6917.874,95.437,540.8380000000002,538.641,0.0
49745.0,STARLINK-3241,PAYLOAD,2022-07-30 07:37:00,15.08852653,0.00016,53.2178,307.5349,63.1572,296.9584,-9.7476e-05,-1.84e-05,0.0,0 STARLINK-3241,1 49745U 21115X   22211.31736868 -.00001840  00000-0 -97476-4 0  9991,2 49745  53.2178 307.5349 0001600  63.1572 296.9584 15.08852653 37612,6917.842,95.437,540.814,538.6,0.0
49745.0,STARLINK-3241,PAYLOAD,2022-07-30 15:33:57,15.08829052,0.0001647,53.2178,306.0488,64.3805,295.7357,2.2754e-05,7.4e-07,0.0,0 STARLINK-3241,1 49745U 21115X   22211.64858171  .00000074  00000-0  22754-4 0  9992,2 49745  53.2178 306.0488 0001647  64.3805 295.7357 15.08829052 36557,6917.9140000000025,95.438,540.918,538.639,0.0
49745.0,STARLINK-3241,PAYLOAD,2022-07-31 12:13:58,15.08837528,0.0001548,53.2173,302.1831,66.1347,293.9808,-2.0716e-05,-6.18e-06,0.0,0 STARLINK-3241,1 49745U 21115X   22212.50970088 -.00000618  00000-0 -20716-4 0  9992,2 49745  53.2173 302.1831 0001548  66.1347 293.9808 15.08837528 36684,6917.888000000001,95.438,540.8240000000002,538.682,0.0
49745.0,STARLINK-3241,PAYLOAD,2022-07-31 15:24:43,15.08899733,0.0001644,53.2171,301.5882,55.6396,304.4752,-0.00082262,-0.00013378,0.0,0 STARLINK-3241,1 49745U 21115X   22212.64216744 -.00013378  00000-0 -82262-3 0  9999,2 49745  53.2171 301.5882 0001644  55.6396 304.4752 15.08899733 37813,6917.698,95.434,540.7,538.4259999999998,0.0
49745.0,STARLINK-3241,PAYLOAD,2022-07-31 23:21:39,15.08839815,0.0001499,53.217,300.1020000000001,64.3406,295.7741,1.2532e-05,-8.9e-07,0.0,0 STARLINK-3241,1 49745U 21115X   22212.97337879 -.00000089  00000-0  12532-4 0  9996,2 49745  53.2170 300.1020 0001499  64.3406 295.7741 15.08839815 37868,6917.880999999999,95.438,540.783,538.7090000000002,0.0
49745.0,STARLINK-3241,PAYLOAD,2022-08-01 12:04:44,15.08837196,0.0001486999999999,53.2172,297.7227,65.0151,295.0996,0.00011507,1.544e-05,0.0,0 STARLINK-3241,1 49745U 21115X   22213.50329706  .00001544  00000-0  11507-3 0  9992,2 49745  53.2172 297.7227 0001487  65.0151 295.0996 15.08837196 36833,6917.889,95.438,540.783,538.725,0.0
49745.0,STARLINK-3241,PAYLOAD,2022-08-01 15:15:31,15.08837636,0.0001501,53.2171,297.1281,64.8773,295.2375,0.00011504,1.543e-05,0.0,0 STARLINK-3241,1 49745U 21115X   22213.63577709  .00001543  00000-0  11504-3 0  9990,2 49745  53.2171 297.1281 0001501  64.8773 295.2375 15.08837636 36854,6917.888000000001,95.438,540.7909999999998,538.714,0.0
49745.0,STARLINK-3241,PAYLOAD,2022-08-02 05:33:58,15.08844859,0.0001506999999999,53.217,294.4517,65.193,294.9219,0.00012329,1.675e-05,0.0,0 STARLINK-3241,1 49745U 21115X   22214.23193215  .00001675  00000-0  12329-3 0  9995,2 49745  53.2170 294.4517 0001507  65.1930 294.9219 15.08844859 38052,6917.866,95.437,540.773,538.688,0.0
49745.0,STARLINK-3241,PAYLOAD,2022-08-02 11:55:31,15.08847837,0.0001511,53.2171,293.2623,65.0266,295.0883,0.00012288,1.669e-05,0.0,0 STARLINK-3241,1 49745U 21115X   22214.49688955  .00001669  00000-0  12288-3 0  9990,2 49745  53.2171 293.2623 0001511  65.0266 295.0883 15.08847837 36982,6917.856,95.437,540.7669999999998,538.6759999999998,0.0
49745.0,STARLINK-3241,PAYLOAD,2022-08-03 05:24:46,15.08838344,0.0001539,53.2166,289.9913,66.5248,293.5905,-1.2368e-05,-4.85e-06,0.0,0 STARLINK-3241,1 49745U 21115X   22215.22553836 -.00000485  00000-0 -12368-4 0  9998,2 49745  53.2166 289.9913 0001539  66.5248 293.5905 15.08838344 38204,6917.885,95.438,540.815,538.686,0.0
49745.0,STARLINK-3241,PAYLOAD,2022-08-03 10:10:55,15.08841495,0.000138,53.2168,289.0976,74.7448,285.3696,1.6161e-05,-3.1e-07,0.0,0 STARLINK-3241,1 49745U 21115X   22215.42425497 -.00000031  00000-0  16161-4 0  9992,2 49745  53.2168 289.0976 0001380  74.7448 285.3696 15.08841495 37120,6917.876,95.437,540.695,538.786,0.0
49745.0,STARLINK-3241,PAYLOAD,2022-08-03 11:46:18,15.08842211,0.0001475,53.217,288.8005,66.6216,293.4931,2.4592e-05,1.03e-06,0.0,0 STARLINK-3241,1 49745U 21115X   22215.49049460  .00000103  00000-0  24592-4 0  9997,2 49745  53.2170 288.8005 0001475  66.6216 293.4931 15.08842211 37131,6917.874,95.437,540.759,538.7180000000002,0.0
49745.0,STARLINK-3241,PAYLOAD,2022-08-04 05:15:32,15.08847114,0.0001468,53.2166,285.531,62.6293,297.4848,7.1279e-06,-1.75e-06,0.0,0 STARLINK-3241,1 49745U 21115X   22216.21912984 -.00000175  00000-0  71279-5 0  9993,2 49745  53.2166 285.5310 0001468  62.6293 297.4848 15.08847114 38355,6917.859,95.437,540.739,538.7080000000002,0.0
49745.0,STARLINK-3241,PAYLOAD,2022-08-04 11:37:05,15.0884765,0.0001464,53.2166,284.3415,61.6265,298.4875,8.9125e-06,-1.46e-06,0.0,0 STARLINK-3241,1 49745U 21115X   22216.48408834 -.00000146  00000-0  89125-5 0  9993,2 49745  53.2166 284.3415 0001464  61.6265 298.4875 15.08847650 37289,6917.857,95.437,540.735,538.7090000000002,0.0
49745.0,STARLINK-3241,PAYLOAD,2022-08-05 05:06:20,15.08831704,0.0001453999999999,53.2164,281.0705,60.2568,299.8569,-1.8759e-05,-5.86e-06,0.0,0 STARLINK-3241,1 49745U 21115X   22217.21274128 -.00000586  00000-0 -18759-4 0  9995,2 49745  53.2164 281.0705 0001454  60.2568 299.8569 15.08831704 38507,6917.906,95.438,540.7769999999998,538.765,0.0
49745.0,STARLINK-3241,PAYLOAD,2022-08-05 09:52:30,15.0883516,0.0001471,53.2163,280.1785,60.6696,299.4442,9.6765e-06,-1.34e-06,0.0,0 STARLINK-3241,1 49745U 21115X   22217.41145890 -.00000134  00000-0  96765-5 0  9992,2 49745  53.2163 280.1785 0001471  60.6696 299.4442 15.08835160 37425,6917.895,95.438,540.778,538.743,0.0
49745.0,STARLINK-3241,PAYLOAD,2022-08-05 14:38:39,15.08835683,0.000148,53.2162,279.2863,59.6756,300.4382,1.1608e-05,-1.03e-06,0.0,0 STARLINK-3241,1 49745U 21115X   22217.61017907 -.00000103  00000-0  11608-4 0  9999,2 49745  53.2162 279.2863 0001480  59.6756 300.4382 15.08835683 37454,6917.894,95.438,540.7819999999998,538.735,0.0
49745.0,STARLINK-3241,PAYLOAD,2022-08-05 21:00:11,15.0883839,0.0001479,53.2162,278.0969,59.514,300.5998,2.752e-05,1.5e-06,0.0,0 STARLINK-3241,1 49745U 21115X   22217.87513744  .00000150  00000-0  27520-4 0  9998,2 49745  53.2162 278.0969 0001479  59.5140 300.5998 15.08838390 38602,6917.885,95.438,540.773,538.727,0.0
49745.0,STARLINK-3241,PAYLOAD,2022-08-06 11:18:39,15.08839215,0.0001541,53.216,275.4206,60.5651,299.5495,6.456e-05,7.400000000000001e-06,0.0,0 STARLINK-3241,1 49745U 21115X   22218.47129596  .00000740  00000-0  64560-4 0  9993,2 49745  53.2160 275.4206 0001541  60.5651 299.5495 15.08839215 37586,6917.8830000000025,95.438,540.814,538.682,0.0
49745.0,STARLINK-3241,PAYLOAD,2022-08-07 00:01:44,15.08841232,0.0001564999999999,53.216,273.0416,61.5144,298.6005,0.00012356,1.679e-05,0.0,0 STARLINK-3241,1 49745U 21115X   22219.00121402  .00001679  00000-0  12356-3 0  9998,2 49745  53.2160 273.0416 0001565  61.5144 298.6005 15.08841232 38778,6917.877,95.437,540.8240000000002,538.659,0.0
49745.0,STARLINK-3241,PAYLOAD,2022-08-07 11:09:26,15.088468300000002,0.000157,53.216,270.9599,61.6608,298.4542,0.00014523,2.025e-05,0.0,0 STARLINK-3241,1 49745U 21115X   22219.46489071  .00002025  00000-0  14523-3 0  9991,2 49745  53.2160 270.9599 0001570  61.6608 298.4542 15.08846830 37736,6917.86,95.437,540.811,538.638,0.0
49745.0,STARLINK-3241,PAYLOAD,2022-08-07 20:41:46,15.08836465,0.0001639,53.2161,269.1758,61.6051,298.5106,4.6017e-05,4.44e-06,0.0,0 STARLINK-3241,1 49745U 21115X   22219.86234106  .00000444  00000-0  46017-4 0  9999,2 49745  53.2161 269.1758 0001639  61.6051 298.5106 15.08836465 37798,6917.891,95.438,540.89,538.622,0.0
49745.0,STARLINK-3241,PAYLOAD,2022-08-08 03:03:18,15.0884117,0.0001644,53.216,267.9859,61.8014,298.3144,6.1924e-05,6.98e-06,0.0,0 STARLINK-3241,1 49745U 21115X   22220.12729856  .00000698  00000-0  61924-4 0  9996,2 49745  53.2160 267.9859 0001644  61.8014 298.3144 15.08841170 38949,6917.877,95.437,540.879,538.605,0.0
49745.0,STARLINK-3241,PAYLOAD,2022-08-08 09:24:51,15.08843851,0.000168,53.2165,266.7967,61.5687,298.5475,6.841e-05,8.01e-06,0.0,0 STARLINK-3241,1 49745U 21115X   22220.39225716  .00000801  00000-0  68410-4 0  9994,2 49745  53.2165 266.7967 0001680  61.5687 298.5475 15.08843851 37872,6917.869000000002,95.437,540.896,538.571,0.0
49745.0,STARLINK-3241,PAYLOAD,2022-08-08 20:32:32,15.08849223,0.0001545,53.2159,264.715,61.1111,299.0036,0.00010472,1.379e-05,0.0,0 STARLINK-3241,1 49745U 21115X   22220.85593116  .00001379  00000-0  10472-3 0  9992,2 49745  53.2159 264.7150 0001545  61.1111 299.0036 15.08849223 37941,6917.852,95.437,540.786,538.648,0.0
49745.0,STARLINK-3241,PAYLOAD,2022-08-08 23:43:18,15.08850822,0.0001551,53.2152,264.12,60.2373,299.8773,0.00018002,2.579e-05,0.0,0 STARLINK-3241,1 49745U 21115X   22220.98841116  .00002579  00000-0  18002-3 0  9992,2 49745  53.2152 264.1200 0001551  60.2373 299.8773 15.08850822 39070,6917.847,95.437,540.785,538.639,0.0
49745.0,STARLINK-3241,PAYLOAD,2022-08-09 09:15:37,15.08849239,0.0001605,53.2149,262.3365,58.8046,301.3103,0.00023007,3.376e-05,0.0,0 STARLINK-3241,1 49745U 21115X   22221.38585161  .00003376  00000-0  23007-3 0  9999,2 49745  53.2149 262.3365 0001605  58.8046 301.3103 15.08849239 38028,6917.852,95.437,540.827,538.607,0.0
